{
    "links": {
        "self": "http://www.neowsapp.com/rest/v1/neo/3774434?api_key=iIulBulltgU6a56xZRHN4H3l9WmuAYTsLGpBGhQ2"
    },
    "id": "3774434",
    "neo_reference_id": "3774434",
    "name": "(2017 HX49)",
    "designation": "2017 HX49",
    "nasa_jpl_url": "http://ssd.jpl.nasa.gov/sbdb.cgi?sstr=3774434",
    "absolute_magnitude_h": 25.3,
    "estimated_diameter": {
        "kilometers": {
            "estimated_diameter_min": 0.0231502122,
            "estimated_diameter_max": 0.0517654482
        },
        "meters": {
            "estimated_diameter_min": 23.150212221,
            "estimated_diameter_max": 51.7654482198
        },
        "miles": {
            "estimated_diameter_min": 0.0143848705,
            "estimated_diameter_max": 0.0321655483
        },
        "feet": {
            "estimated_diameter_min": 75.9521422633,
            "estimated_diameter_max": 169.8341531374
        }
    },
    "is_potentially_hazardous_asteroid": false,
    "close_approach_data": [
        {
            "close_approach_date": "2017-04-25",
            "close_approach_date_full": "2017-Apr-25 22:07",
            "epoch_date_close_approach": 1493158020000,
            "relative_velocity": {
                "kilometers_per_second": "9.3014871617",
                "kilometers_per_hour": "33485.3537821755",
                "miles_per_hour": "20806.4966320412"
            },
            "miss_distance": {
                "astronomical": "0.0627394137",
                "lunar": "24.4056319293",
                "kilometers": "9385682.654568819",
                "miles": "5831992.7684509422"
            },
            "orbiting_body": "Earth"
        }
    ],
    "orbital_data": {
        "orbit_id": "3",
        "orbit_determination_date": "2017-05-05 06:19:35",
        "first_observation_date": "2017-04-30",
        "last_observation_date": "2017-05-04",
        "data_arc_in_days": 4,
        "observations_used": 43,
        "orbit_uncertainty": "8",
        "minimum_orbit_intersection": ".0591561",
        "jupiter_tisserand_invariant": "2.965",
        "epoch_osculation": "2457875.5",
        "eccentricity": ".6311434793701836",
        "semi_major_axis": "2.843746110979128",
        "inclination": "8.329976082740858",
        "ascending_node_longitude": "221.8268165129657",
        "orbital_period": "1751.598872558496",
        "perihelion_distance": "1.048934296050333",
        "perihelion_argument": "337.6495549507742",
        "aphelion_distance": "4.638557925907923",
        "perihelion_time": "2457856.450369430608",
        "mean_anomaly": "3.915204052948543",
        "mean_motion": ".2055265081748776",
        "equinox": "J2000",
        "orbit_class": {
            "orbit_class_type": "AMO",
            "orbit_class_description": "Near-Earth asteroid orbits similar to that of 1221 Amor",
            "orbit_class_range": "1.017 AU < q (perihelion) < 1.3 AU"
        }
    },
    "is_sentry_object": false
}